{
  "links" : {
    "next" : "https://api.nasa.gov/neo/rest/v1/feed?start_date=1997-01-09&end_date=1997-01-09&detailed=true&api_key=t0TVs3DtDT2H8Oy2Zy8m2eVrNsAVKAexjcZXUckd",
    "prev" : "https://api.nasa.gov/neo/rest/v1/feed?start_date=1997-01-07&end_date=1997-01-07&detailed=true&api_key=t0TVs3DtDT2H8Oy2Zy8m2eVrNsAVKAexjcZXUckd",
    "self" : "https://api.nasa.gov/neo/rest/v1/feed?start_date=1997-01-08&end_date=1997-01-08&detailed=true&api_key=t0TVs3DtDT2H8Oy2Zy8m2eVrNsAVKAexjcZXUckd"
  },
  "element_count" : 1,
  "near_earth_objects" : {
    "1997-01-08" : [ {
      "links" : {
        "self" : "https://api.nasa.gov/neo/rest/v1/neo/2066146?api_key=t0TVs3DtDT2H8Oy2Zy8m2eVrNsAVKAexjcZXUckd"
      },
      "neo_reference_id" : "2066146",
      "name" : "66146 (1998 TU3)",
      "nasa_jpl_url" : "http://ssd.jpl.nasa.gov/sbdb.cgi?sstr=2066146",
      "absolute_magnitude_h" : 14.5,
      "estimated_diameter" : {
        "kilometers" : {
          "estimated_diameter_min" : 3.3462237445,
          "estimated_diameter_max" : 7.4823837607
        },
        "meters" : {
          "estimated_diameter_min" : 3346.2237445489,
          "estimated_diameter_max" : 7482.3837607352
        },
        "miles" : {
          "estimated_diameter_min" : 2.0792463944,
          "estimated_diameter_max" : 4.6493362798
        },
        "feet" : {
          "estimated_diameter_min" : 10978.4247100658,
          "estimated_diameter_max" : 24548.5039375706
        }
      },
      "is_potentially_hazardous_asteroid" : false,
      "close_approach_data" : [ {
        "close_approach_date" : "1997-01-08",
        "epoch_date_close_approach" : 852710400000,
        "relative_velocity" : {
          "kilometers_per_second" : "11.5679264612",
          "kilometers_per_hour" : "41644.5352602325",
          "miles_per_hour" : "25876.2947010039"
        },
        "miss_distance" : {
          "astronomical" : "0.4316922212",
          "lunar" : "167.9282684326",
          "kilometers" : "64580236",
          "miles" : "40128300"
        },
        "orbiting_body" : "Earth"
      } ],
      "orbital_data" : {
        "orbit_id" : "193",
        "orbit_determination_date" : "2017-09-27 06:51:43",
        "orbit_uncertainty" : "0",
        "minimum_orbit_intersection" : ".0733391",
        "jupiter_tisserand_invariant" : "7.289",
        "epoch_osculation" : "2458000.5",
        "eccentricity" : ".4838099276113064",
        "semi_major_axis" : ".7870995671093011",
        "inclination" : "5.412671028819789",
        "ascending_node_longitude" : "102.1953559870977",
        "orbital_period" : "255.0603417087788",
        "perihelion_distance" : ".4062929825232595",
        "perihelion_argument" : "84.68665547599605",
        "aphelion_distance" : "1.167906151695343",
        "perihelion_time" : "2457885.155235384867",
        "mean_anomaly" : "162.8011433814314",
        "mean_motion" : "1.41143071317233",
        "equinox" : "J2000"
      }
    } ]
  }
}